     2.100          NAVIGATION                              RINEX VERSION / TYPE
fic2rin                                 02/12/2014 00:26:02 PGM / RUN BY / DATE
                                                            END OF HEADER
25 14  2 11 12  0  0.0  .140168704093D-04  .193267624127D-11  .000000000000D+00
     .620000000000D+02 -.334375000000D+01  .441482675240D-08  .180974634347D+01
    -.199303030968D-06  .313711608760D-02  .183098018169D-05  .515365543175D+04
     .216000000000D+06 -.102445483208D-06 -.191857044507D+01  .447034835815D-07
     .975166288893D+00  .348625000000D+03  .606535179322D+00 -.834284751309D-08
     .860750139413D-10  .100000000000D+01  .177900000000D+04  .000000000000D+00
     .240000000000D+01  .000000000000D+00  .558793544769D-08  .620000000000D+02
     .208806000000D+06  .400000000000D+01
26 14  2 11 12  0  0.0  .168205238879D-03 -.110276232590D-10  .000000000000D+00
     .820000000000D+02  .178750000000D+02  .391766318640D-08 -.174275372311D+01
     .103563070297D-05  .214317621430D-01  .962428748608D-05  .515368530655D+04
     .216000000000D+06  .474974513054D-06  .237128652071D+01  .201165676117D-06
     .976016535418D+00  .198625000000D+03  .126298030319D+01 -.745602485908D-08
    -.460019161645D-09  .100000000000D+01  .177900000000D+04  .000000000000D+00
     .240000000000D+01  .000000000000D+00 -.605359673500D-08  .820000000000D+02
     .208806000000D+06  .400000000000D+01
27 14  2 11 12  0  0.0 -.182972289622D-04 -.125055521494D-11  .000000000000D+00
     .720000000000D+02 -.118125000000D+03  .438232539859D-08 -.417745223760D+00
    -.608898699284D-05  .769493519329D-03  .817701220512D-05  .515367871475D+04
     .216000000000D+06  .260770320892D-07 -.869829380228D+00 -.745058059692D-08
     .962445927999D+00  .223156250000D+03  .752563110474D-01 -.803033449566D-08
    -.112504686272D-09  .100000000000D+01  .177900000000D+04  .000000000000D+00
     .240000000000D+01  .000000000000D+00  .186264514923D-08  .720000000000D+02
     .208806000000D+06  .400000000000D+01
28 14  2 11 12  0  0.0  .331699382514D-03  .295585778076D-11  .000000000000D+00
     .490000000000D+02 -.106250000000D+02  .423767651624D-08  .306876887248D+00
    -.640749931335D-06  .192806255072D-01  .271946191788D-05  .515366034317D+04
     .216000000000D+06 -.296160578728D-06 -.185290382829D+01 -.353902578354D-07
     .985515037217D+00  .341968750000D+03 -.172558858261D+01 -.845999524990D-08
    -.892894335490D-11  .100000000000D+01  .177900000000D+04  .000000000000D+00
     .240000000000D+01  .000000000000D+00 -.107102096081D-07  .490000000000D+02
     .208806000000D+06  .400000000000D+01
29 14  2 11 12  0  0.0  .510151498020D-03  .295585778076D-11  .000000000000D+00
     .980000000000D+02 -.102531250000D+03  .423053336155D-08  .237171513815D+01
    -.553205609322D-05  .163658987731D-02  .908225774765D-05  .515376367760D+04
     .216000000000D+06  .484287738800D-07 -.815973316564D+00  .745058059692D-08
     .968501684703D+00  .209281250000D+03 -.993745791764D+00 -.791032949697D-08
    -.825034365993D-10  .100000000000D+01  .177900000000D+04  .000000000000D+00
     .240000000000D+01  .000000000000D+00 -.931322574615D-08  .980000000000D+02
     .208806000000D+06  .400000000000D+01
31 14  2 11 12  0  0.0  .333146192133D-03  .341060513165D-12  .000000000000D+00
     .150000000000D+02  .118062500000D+03  .389373361821D-08  .291329233528D+01
     .609457492828D-05  .822527031414D-02  .805966556072D-05  .515377661324D+04
     .216000000000D+06  .335276126862D-07 -.293318184764D+01  .540167093277D-07
     .979430873570D+00  .235250000000D+03 -.662233017349D+00 -.770639243075D-08
     .178936024832D-09  .100000000000D+01  .177900000000D+04  .000000000000D+00
     .240000000000D+01  .000000000000D+00 -.130385160446D-07  .150000000000D+02
     .208806000000D+06  .400000000000D+01
32 14  2 11 12  0  0.0 -.487466342747D-03  .636646291241D-11  .000000000000D+00
     .780000000000D+02 -.206250000000D+01  .512771358985D-08 -.274541155037D+01
    -.230967998505D-06  .114871823462D-01  .528618693352D-05  .515349887276D+04
     .216000000000D+06 -.227242708206D-06  .131243039261D+01  .577419996262D-07
     .947722871753D+00  .269468750000D+03 -.185685858447D+00 -.819069831832D-08
    -.191079387795D-09  .100000000000D+01  .177900000000D+04  .000000000000D+00
     .240000000000D+01  .000000000000D+00 -.325962901115D-08  .780000000000D+02
     .208806000000D+06  .400000000000D+01
10 14  2 11 11 59 44.0 -.113842077553D-03 -.159161572810D-11  .000000000000D+00
     .200000000000D+01  .500000000000D+00  .546701343734D-08  .559554339090D+00
     .298023223877D-06  .134380952222D-01  .517815351486D-05  .515369572639D+04
     .215984000000D+06 -.968575477600D-07  .124145290482D+01  .132247805595D-06
     .942068153560D+00  .269062500000D+03  .855727258098D+00 -.868036157190D-08
    -.196436753808D-09  .100000000000D+01  .177900000000D+04  .000000000000D+00
     .240000000000D+01  .000000000000D+00 -.279396772385D-08  .200000000000D+01
     .209136000000D+06  .400000000000D+01
 9 14  2 11 11 59 44.0  .304715242237D-03  .284217094304D-11  .000000000000D+00
     .600000000000D+01  .102937500000D+03  .372229790579D-08 -.220098009913D+01
     .551342964172D-05  .169010218233D-01  .776909291744D-05  .515369733810D+04
     .215984000000D+06  .188127160072D-06 -.296006218176D+01  .253319740295D-06
     .983042107330D+00  .238281250000D+03  .176842220661D+01 -.751174146561D-08
     .176078762959D-09  .100000000000D+01  .177900000000D+04  .000000000000D+00
     .240000000000D+01  .000000000000D+00 -.605359673500D-08  .600000000000D+01
     .209706000000D+06  .400000000000D+01
23 14  2 11 11 59 44.0  .488338992000D-05 -.318323145621D-11  .000000000000D+00
     .900000000000D+01 -.168750000000D+01  .449268713845D-08 -.168932195543D+01
    -.229105353355D-06  .891282560769D-02  .994093716145D-05  .515359426880D+04
     .215984000000D+06 -.502914190292D-07  .228510736986D+01 -.158324837685D-06
     .952744512147D+00  .182625000000D+03 -.280786439069D+01 -.784818405122D-08
    -.433589489314D-09  .100000000000D+01  .177900000000D+04  .000000000000D+00
     .240000000000D+01  .000000000000D+00 -.200234353542D-07  .900000000000D+01
     .213186000000D+06  .400000000000D+01
 4 14  2 11 11 59 44.0  .547990202904D-05  .341060513165D-12  .000000000000D+00
     .300000000000D+01 -.340625000000D+01  .512521348571D-08  .134405828357D+01
    -.108033418655D-06  .106062416453D-01  .996328890324D-05  .515369327354D+04
     .215984000000D+06 -.268220901489D-06  .172825592845D+00  .204890966415D-07
     .938657234247D+00  .180812500000D+03  .107725612214D+01 -.831998941810D-08
     .382873091058D-09  .100000000000D+01  .177900000000D+04  .000000000000D+00
     .240000000000D+01  .000000000000D+00 -.605359673500D-08  .300000000000D+01
     .213456000000D+06  .400000000000D+01
 6 14  2 11 11 59 44.0  .271462369710D-03  .145519152284D-10  .000000000000D+00
     .300000000000D+02 -.116468750000D+03  .491770484215D-08  .205461080336D-01
    -.607594847679D-05  .856344401836D-02  .728480517864D-05  .515368877220D+04
     .215984000000D+06  .126659870148D-06 -.934888024353D+00 -.428408384323D-07
     .943718478760D+00  .230500000000D+03 -.176999068447D+00 -.841963642594D-08
    -.129291099779D-09  .100000000000D+01  .177900000000D+04  .000000000000D+00
     .240000000000D+01  .000000000000D+00 -.512227416039D-08  .300000000000D+02
     .215706000000D+06  .400000000000D+01
27 14  2 11 11 59 44.0 -.182972289622D-04 -.125055521494D-11  .000000000000D+00
     .000000000000D+00 -.118125000000D+03  .438268255632D-08 -.420083783159D+00
    -.608898699284D-05  .769497826695D-03  .817701220512D-05  .515367871857D+04
     .215984000000D+06  .260770320892D-07 -.869829251491D+00 -.745058059692D-08
     .962445933851D+00  .223156250000D+03  .752611094187D-01 -.803033449566D-08
    -.112504686272D-09  .100000000000D+01  .177900000000D+04  .000000000000D+00
     .240000000000D+01  .000000000000D+00  .186264514923D-08  .000000000000D+00
     .215736000000D+06  .400000000000D+01
 4 14  2 11 13 59 44.0  .548223033547D-05  .341060513165D-12  .000000000000D+00
     .600000000000D+01 -.537500000000D+01  .500663711796D-08  .239425708338D+01
    -.355765223503D-06  .106065527070D-01  .983662903309D-05  .515369260788D+04
     .223184000000D+06  .186264514923D-07  .172766545083D+00 -.238418579102D-06
     .938661867309D+00  .177312500000D+03  .107723040697D+01 -.796140305296D-08
     .456090426568D-09  .100000000000D+01  .177900000000D+04  .000000000000D+00
     .240000000000D+01  .000000000000D+00 -.605359673500D-08  .600000000000D+01
     .216006000000D+06  .400000000000D+01
 6 14  2 11 13 59 44.0  .271566677839D-03  .145519152284D-10  .000000000000D+00
     .310000000000D+02 -.111718750000D+03  .482627246219D-08  .107066708938D+01
    -.580772757530D-05  .856374925934D-02  .725872814655D-05  .515368974113D+04
     .223184000000D+06  .126659870148D-06 -.934947762613D+00  .134110450745D-06
     .943717934554D+00  .230562500000D+03 -.176946039130D+00 -.827570185906D-08
    -.194293807403D-09  .100000000000D+01  .177900000000D+04  .000000000000D+00
     .240000000000D+01  .000000000000D+00 -.512227416039D-08  .310000000000D+02
     .216006000000D+06  .400000000000D+01
 9 14  2 11 13 59 44.0  .304735265672D-03  .284217094304D-11  .000000000000D+00
     .700000000000D+01  .101093750000D+03  .389944814195D-08 -.115089915493D+01
     .538118183613D-05  .169011413818D-01  .876002013683D-05  .515369474220D+04
     .223184000000D+06 -.281259417534D-06 -.296011814569D+01  .137835741043D-06
     .983041302725D+00  .228656250000D+03  .176850342490D+01 -.798068957061D-08
     .212508851847D-09  .100000000000D+01  .177900000000D+04  .000000000000D+00
     .240000000000D+01  .000000000000D+00 -.605359673500D-08  .700000000000D+01
     .216006000000D+06  .400000000000D+01
